1 00001S 24149A   24298.00000000 -.00027820 +00000-0 +74395-5 0  9999
2 00001 056.0000 000.0000 0005280 000.0000 015.0000 01.70478493000008